[
  {
    "COMMENT": "GENERATED VIA SPACETRACK.ORG API",
    "ORIGINATOR": "18 SPCS",
    "NORAD_CAT_ID": "41335",
    "OBJECT_NAME": "SENTINEL 3A",
    "OBJECT_TYPE": "PAYLOAD",
    "CLASSIFICATION_TYPE": "U",
    "INTLDES": "16011A",
    "EPOCH": "2023-07-02 02:15:46",
    "EPOCH_MICROSECONDS": "988640",
    "MEAN_MOTION": "14.26741053",
    "ECCENTRICITY": "0.0001212",
    "INCLINATION": "98.6208",
    "RA_OF_ASC_NODE": "249.9249",
    "ARG_OF_PERICENTER": "90.7249",
    "MEAN_ANOMALY": "269.407",
    "EPHEMERIS_TYPE": "0",
    "ELEMENT_SET_NO": "999",
    "REV_AT_EPOCH": "38390",
    "BSTAR": "0.000066394",
    "MEAN_MOTION_DOT": "0.00000117",
    "MEAN_MOTION_DDOT": "0",
    "FILE": "3947252",
    "TLE_LINE0": "0 SENTINEL 3A",
    "TLE_LINE1": "1 41335U 16011A   23183.09429385  .00000117  00000-0  66394-4 0  9993",
    "TLE_LINE2": "2 41335  98.6208 249.9249 0001212  90.7249 269.4070 14.26741053383901",
    "OBJECT_ID": "2016-011A",
    "OBJECT_NUMBER": "41335",
    "SEMIMAJOR_AXIS": "7180.782",
    "PERIOD": "100.929",
    "APOGEE": "803.517",
    "PERIGEE": "801.777",
    "DECAYED": "0"
  },
  {
    "COMMENT": "GENERATED VIA SPACETRACK.ORG API",
    "ORIGINATOR": "18 SPCS",
    "NORAD_CAT_ID": "41335",
    "OBJECT_NAME": "SENTINEL 3A",
    "OBJECT_TYPE": "PAYLOAD",
    "CLASSIFICATION_TYPE": "U",
    "INTLDES": "16011A",
    "EPOCH": "2023-07-02 10:40:43",
    "EPOCH_MICROSECONDS": "4352",
    "MEAN_MOTION": "14.26741186",
    "ECCENTRICITY": "0.0001209",
    "INCLINATION": "98.6209",
    "RA_OF_ASC_NODE": "250.2703",
    "ARG_OF_PERICENTER": "90.7718",
    "MEAN_ANOMALY": "269.3601",
    "EPHEMERIS_TYPE": "0",
    "ELEMENT_SET_NO": "999",
    "REV_AT_EPOCH": "38395",
    "BSTAR": "0.000068603",
    "MEAN_MOTION_DOT": "0.00000122",
    "MEAN_MOTION_DDOT": "0",
    "FILE": "3947517",
    "TLE_LINE0": "0 SENTINEL 3A",
    "TLE_LINE1": "1 41335U 16011A   23183.44494218  .00000122  00000-0  68603-4 0  9990",
    "TLE_LINE2": "2 41335  98.6209 250.2703 0001209  90.7718 269.3601 14.26741186383950",
    "OBJECT_ID": "2016-011A",
    "OBJECT_NUMBER": "41335",
    "SEMIMAJOR_AXIS": "7180.781",
    "PERIOD": "100.929",
    "APOGEE": "803.515",
    "PERIGEE": "801.778",
    "DECAYED": "0"
  },
  {
    "COMMENT": "GENERATED VIA SPACETRACK.ORG API",
    "ORIGINATOR": "18 SPCS",
    "NORAD_CAT_ID": "41335",
    "OBJECT_NAME": "SENTINEL 3A",
    "OBJECT_TYPE": "PAYLOAD",
    "CLASSIFICATION_TYPE": "U",
    "INTLDES": "16011A",
    "EPOCH": "2023-07-02 15:43:40",
    "EPOCH_MICROSECONDS": "608768",
    "MEAN_MOTION": "14.26741312",
    "ECCENTRICITY": "0.0001203",
    "INCLINATION": "98.6209",
    "RA_OF_ASC_NODE": "250.4776",
    "ARG_OF_PERICENTER": "90.8656",
    "MEAN_ANOMALY": "269.2662",
    "EPHEMERIS_TYPE": "0",
    "ELEMENT_SET_NO": "999",
    "REV_AT_EPOCH": "38398",
    "BSTAR": "0.000070665",
    "MEAN_MOTION_DOT": "0.00000127",
    "MEAN_MOTION_DDOT": "0",
    "FILE": "3947797",
    "TLE_LINE0": "0 SENTINEL 3A",
    "TLE_LINE1": "1 41335U 16011A   23183.65533112  .00000127  00000-0  70665-4 0  9996",
    "TLE_LINE2": "2 41335  98.6209 250.4776 0001203  90.8656 269.2662 14.26741312383988",
    "OBJECT_ID": "2016-011A",
    "OBJECT_NUMBER": "41335",
    "SEMIMAJOR_AXIS": "7180.781",
    "PERIOD": "100.929",
    "APOGEE": "803.510",
    "PERIGEE": "801.782",
    "DECAYED": "0"
  },
  {
    "COMMENT": "GENERATED VIA SPACETRACK.ORG API",
    "ORIGINATOR": "18 SPCS",
    "NORAD_CAT_ID": "41335",
    "OBJECT_NAME": "SENTINEL 3A",
    "OBJECT_TYPE": "PAYLOAD",
    "CLASSIFICATION_TYPE": "U",
    "INTLDES": "16011A",
    "EPOCH": "2023-07-03 01:49:35",
    "EPOCH_MICROSECONDS": "821920",
    "MEAN_MOTION": "14.26741473",
    "ECCENTRICITY": "0.0001198",
    "INCLINATION": "98.6209",
    "RA_OF_ASC_NODE": "250.8922",
    "ARG_OF_PERICENTER": "90.9057",
    "MEAN_ANOMALY": "269.2261",
    "EPHEMERIS_TYPE": "0",
    "ELEMENT_SET_NO": "999",
    "REV_AT_EPOCH": "38404",
    "BSTAR": "0.000072733",
    "MEAN_MOTION_DOT": "0.00000132",
    "MEAN_MOTION_DDOT": "0",
    "FILE": "3947987",
    "TLE_LINE0": "0 SENTINEL 3A",
    "TLE_LINE1": "1 41335U 16011A   23184.07610905  .00000132  00000-0  72733-4 0  9993",
    "TLE_LINE2": "2 41335  98.6209 250.8922 0001198  90.9057 269.2261 14.26741473384045",
    "OBJECT_ID": "2016-011A",
    "OBJECT_NUMBER": "41335",
    "SEMIMAJOR_AXIS": "7180.780",
    "PERIOD": "100.929",
    "APOGEE": "803.506",
    "PERIGEE": "801.785",
    "DECAYED": "0"
  },
  {
    "COMMENT": "GENERATED VIA SPACETRACK.ORG API",
    "ORIGINATOR": "18 SPCS",
    "NORAD_CAT_ID": "41335",
    "OBJECT_NAME": "SENTINEL 3A",
    "OBJECT_TYPE": "PAYLOAD",
    "CLASSIFICATION_TYPE": "U",
    "INTLDES": "16011A",
    "EPOCH": "2023-07-03 11:55:31",
    "EPOCH_MICROSECONDS": "32480",
    "MEAN_MOTION": "14.26741599",
    "ECCENTRICITY": "0.0001202",
    "INCLINATION": "98.6209",
    "RA_OF_ASC_NODE": "251.3067",
    "ARG_OF_PERICENTER": "90.8491",
    "MEAN_ANOMALY": "269.2827",
    "EPHEMERIS_TYPE": "0",
    "ELEMENT_SET_NO": "999",
    "REV_AT_EPOCH": "38410",
    "BSTAR": "0.000071306",
    "MEAN_MOTION_DOT": "0.00000129",
    "MEAN_MOTION_DDOT": "0",
    "FILE": "3948289",
    "TLE_LINE0": "0 SENTINEL 3A",
    "TLE_LINE1": "1 41335U 16011A   23184.49688695  .00000129  00000-0  71306-4 0  9991",
    "TLE_LINE2": "2 41335  98.6209 251.3067 0001202  90.8491 269.2827 14.26741599384102",
    "OBJECT_ID": "2016-011A",
    "OBJECT_NUMBER": "41335",
    "SEMIMAJOR_AXIS": "7180.780",
    "PERIOD": "100.929",
    "APOGEE": "803.508",
    "PERIGEE": "801.782",
    "DECAYED": "0"
  },
  {
    "COMMENT": "GENERATED VIA SPACETRACK.ORG API",
    "ORIGINATOR": "18 SPCS",
    "NORAD_CAT_ID": "41335",
    "OBJECT_NAME": "SENTINEL 3A",
    "OBJECT_TYPE": "PAYLOAD",
    "CLASSIFICATION_TYPE": "U",
    "INTLDES": "16011A",
    "EPOCH": "2023-07-03 16:58:28",
    "EPOCH_MICROSECONDS": "636896",
    "MEAN_MOTION": "14.26741673",
    "ECCENTRICITY": "0.0001201",
    "INCLINATION": "98.6209",
    "RA_OF_ASC_NODE": "251.514",
    "ARG_OF_PERICENTER": "90.8326",
    "MEAN_ANOMALY": "269.2992",
    "EPHEMERIS_TYPE": "0",
    "ELEMENT_SET_NO": "999",
    "REV_AT_EPOCH": "38413",
    "BSTAR": "0.00007025",
    "MEAN_MOTION_DOT": "0.00000126",
    "MEAN_MOTION_DDOT": "0",
    "FILE": "3948705",
    "TLE_LINE0": "0 SENTINEL 3A",
    "TLE_LINE1": "1 41335U 16011A   23184.70727589  .00000126  00000-0  70250-4 0  9995",
    "TLE_LINE2": "2 41335  98.6209 251.5140 0001201  90.8326 269.2992 14.26741673384131",
    "OBJECT_ID": "2016-011A",
    "OBJECT_NUMBER": "41335",
    "SEMIMAJOR_AXIS": "7180.780",
    "PERIOD": "100.929",
    "APOGEE": "803.507",
    "PERIGEE": "801.782",
    "DECAYED": "0"
  },
  {
    "COMMENT": "GENERATED VIA SPACETRACK.ORG API",
    "ORIGINATOR": "18 SPCS",
    "NORAD_CAT_ID": "41335",
    "OBJECT_NAME": "SENTINEL 3A",
    "OBJECT_TYPE": "PAYLOAD",
    "CLASSIFICATION_TYPE": "U",
    "INTLDES": "16011A",
    "EPOCH": "2023-07-04 03:04:23",
    "EPOCH_MICROSECONDS": "839680",
    "MEAN_MOTION": "14.26741826",
    "ECCENTRICITY": "0.0001197",
    "INCLINATION": "98.6208",
    "RA_OF_ASC_NODE": "251.9285",
    "ARG_OF_PERICENTER": "90.8147",
    "MEAN_ANOMALY": "269.3171",
    "EPHEMERIS_TYPE": "0",
    "ELEMENT_SET_NO": "999",
    "REV_AT_EPOCH": "38419",
    "BSTAR": "0.000072276",
    "MEAN_MOTION_DOT": "0.00000131",
    "MEAN_MOTION_DDOT": "0",
    "FILE": "3948923",
    "TLE_LINE0": "0 SENTINEL 3A",
    "TLE_LINE1": "1 41335U 16011A   23185.12805370  .00000131  00000-0  72276-4 0  9993",
    "TLE_LINE2": "2 41335  98.6208 251.9285 0001197  90.8147 269.3171 14.26741826384195",
    "OBJECT_ID": "2016-011A",
    "OBJECT_NUMBER": "41335",
    "SEMIMAJOR_AXIS": "7180.779",
    "PERIOD": "100.929",
    "APOGEE": "803.504",
    "PERIGEE": "801.785",
    "DECAYED": "0"
  },
  {
    "COMMENT": "GENERATED VIA SPACETRACK.ORG API",
    "ORIGINATOR": "18 SPCS",
    "NORAD_CAT_ID": "41335",
    "OBJECT_NAME": "SENTINEL 3A",
    "OBJECT_TYPE": "PAYLOAD",
    "CLASSIFICATION_TYPE": "U",
    "INTLDES": "16011A",
    "EPOCH": "2023-07-04 11:29:19",
    "EPOCH_MICROSECONDS": "839840",
    "MEAN_MOTION": "14.26742012",
    "ECCENTRICITY": "0.0001198",
    "INCLINATION": "98.6209",
    "RA_OF_ASC_NODE": "252.274",
    "ARG_OF_PERICENTER": "90.8321",
    "MEAN_ANOMALY": "269.2997",
    "EPHEMERIS_TYPE": "0",
    "ELEMENT_SET_NO": "999",
    "REV_AT_EPOCH": "38424",
    "BSTAR": "0.000077636",
    "MEAN_MOTION_DOT": "0.00000144",
    "MEAN_MOTION_DDOT": "0",
    "FILE": "3949222",
    "TLE_LINE0": "0 SENTINEL 3A",
    "TLE_LINE1": "1 41335U 16011A   23185.47870185  .00000144  00000-0  77636-4 0  9996",
    "TLE_LINE2": "2 41335  98.6209 252.2740 0001198  90.8321 269.2997 14.26742012384240",
    "OBJECT_ID": "2016-011A",
    "OBJECT_NUMBER": "41335",
    "SEMIMAJOR_AXIS": "7180.779",
    "PERIOD": "100.929",
    "APOGEE": "803.504",
    "PERIGEE": "801.783",
    "DECAYED": "0"
  }
]